ONEWEB-0228             
1 48780U 21045P   23256.84644576  .00000041  00000+0  73626-4 0  9993
2 48780  87.8939  99.7674 0001837  87.7322 272.4018 13.15551876111888
